[
    {
        "Altitude(m)": 604969.089237855,
        "Argument of Periapsis(deg)": 0.0,
        "Eccentricity": 0.0,
        "Inclination(deg)": 60.0,
        "Latitude(deg)": -0.09274542144430901,
        "Longitude(deg)": -80.02247236716421,
        "Mean Anomaly(deg)": 0.0,
        "RAAN(deg)": 20.0,
        "Satellite Name": "Test1 88",
        "Satellite Number": 88,
        "Semi-Major Axis(m)": 6980739.136638005,
        "Time(s)": 0
    },
    {
        "Altitude(m)": 604900.0281429875,
        "Argument of Periapsis(deg)": 0.00010418945913296404,
        "Eccentricity": 0.0,
        "Inclination(deg)": 60.0,
        "Latitude(deg)": 0.4476805565250667,
        "Longitude(deg)": -79.75434950370948,
        "Mean Anomaly(deg)": 0.6201061454618307,
        "RAAN(deg)": 19.99957995086026,
        "Satellite Name": "Test1 88",
        "Satellite Number": 88,
        "Semi-Major Axis(m)": 6980739.136638005,
        "Time(s)": 10
    }
]